SL-16 R/B               
1 22803U 93059B   26119.15408509  .00000259  00000+0  15161-3 0  9994
2 22803  70.9898 264.7039 0015693 139.0117 221.2190 14.17240218686686
ARIANE 40 R/B           
1 22830U 93061H   26119.18561219  .00000201  00000+0  89432-4 0  9998
2 22830  98.4840 187.0552 0011720 131.3071 228.9124 14.32886082701339
COSMOS 2278             
1 23087U 94023A   26119.23578720  .00000073  00000+0  62903-4 0  9994
2 23087  71.0544  69.3426 0010735 303.3730  56.6365 14.14388719651951
SL-16 R/B               
1 23088U 94023B   26119.25947929  .00000150  00000+0  10230-3 0  9999
2 23088  70.9996 324.6870 0004992 237.9237 122.1401 14.15015742653241
SL-16 R/B               
1 23343U 94074B   26119.04011880  .00000445  00000+0  66208-4 0  9998
2 23343  97.7032 147.8007 0007900  63.8401 326.0373 14.79459430694694
SL-16 R/B               
1 23405U 94077B   26119.29202010 -.00000091  00000+0 -22122-4 0  9990
2 23405  70.9833 246.0271 0000275  64.5031 295.6120 14.15572831623396
ARIANE 40+ R/B          
1 23561U 95021B   26119.20017653  .00000274  00000+0  10131-3 0  9998
2 23561  98.4426 189.9783 0006478   1.5393  57.8692 14.39805515626511
SL-16 R/B               
1 23705U 95058B   26119.23079210 -.00000245  00000+0 -10119-3 0  9994
2 23705  71.0211  74.1427 0011100  33.0392 327.1422 14.15504001575008
SL-16 R/B               
1 24298U 96051B   26119.23634117  .00000093  00000+0  77132-4 0  9997
2 24298  70.7611  68.2497 0012507  59.9280 300.3078 14.12428885528787
ORBVIEW 2 (SEASTAR)     
1 24883U 97037A   26119.02096453  .00000253  00000+0  10402-3 0  9998
2 24883  98.8645 284.6882 0001107 269.8323  90.2735 14.35527152515694
SL-16 R/B               
1 25400U 98043G   26119.10869372  .00000043  00000+0  37120-4 0  9993
2 25400  98.8331  72.8560 0009025 224.1930 135.8529 14.26060466446170
SL-16 R/B               
1 25407U 98045B   26119.28754144 -.00000047  00000+0  61571-6 0  9995
2 25407  71.0105  75.1654 0009321 299.2101  60.8090 14.16196405434260
ISS (ZARYA)             
1 25544U 98067A   26119.16770407  .00006851  00000+0  13230-3 0  9992
2 25544  51.6320 182.7324 0007095   3.0267 357.0763 15.49015163564152
CZ-4B R/B               
1 25732U 99025C   26119.09928991  .00000059  00000+0  49137-4 0  9991
2 25732  98.6529 162.1625 0036787 198.2307 181.5798 14.18274693395319
OKEAN-O                 
1 25860U 99039A   26119.14290277  .00000644  00000+0  91085-4 0  9992
2 25860  97.9351 178.4961 0001595 112.8156 247.3225 14.80407248441852
SL-16 R/B               
1 25861U 99039B   26119.14299535  .00000565  00000+0  78316-4 0  9993
2 25861  97.9874 178.1381 0016176  93.7609 266.5454 14.81794225444335
DELTA 2 R/B             
1 25876U 99041E   26119.19625017  .00000590  00000+0  13427-3 0  9994
2 25876  51.7602  99.5057 0502401 137.3683 226.7401 14.11935056370163
