[{"OBJECT_NAME":"SL-16 R/B","OBJECT_ID":"1993-059B","EPOCH":"2026-04-29T03:41:52.951776","MEAN_MOTION":14.17240218,"ECCENTRICITY":0.00156934,"INCLINATION":70.9898,"RA_OF_ASC_NODE":264.7039,"ARG_OF_PERICENTER":139.0117,"MEAN_ANOMALY":221.219,"EPHEMERIS_TYPE":0,"CLASSIFICATION_TYPE":"U","NORAD_CAT_ID":22803,"ELEMENT_SET_NO":999,"REV_AT_EPOCH":68668,"BSTAR":0.00015161241,"MEAN_MOTION_DOT":2.59e-6,"MEAN_MOTION_DDOT":0},{"OBJECT_NAME":"ARIANE 40 R/B","OBJECT_ID":"1993-061H","EPOCH":"2026-04-29T04:27:16.893216","MEAN_MOTION":14.32886082,"ECCENTRICITY":0.00117207,"INCLINATION":98.484,"RA_OF_ASC_NODE":187.0552,"ARG_OF_PERICENTER":131.3071,"MEAN_ANOMALY":228.9124,"EPHEMERIS_TYPE":0,"CLASSIFICATION_TYPE":"U","NORAD_CAT_ID":22830,"ELEMENT_SET_NO":999,"REV_AT_EPOCH":70133,"BSTAR":8.9431555e-5,"MEAN_MOTION_DOT":2.01e-6,"MEAN_MOTION_DDOT":0},{"OBJECT_NAME":"COSMOS 2278","OBJECT_ID":"1994-023A","EPOCH":"2026-04-29T05:39:32.014080","MEAN_MOTION":14.14388719,"ECCENTRICITY":0.00107352,"INCLINATION":71.0544,"RA_OF_ASC_NODE":69.3426,"ARG_OF_PERICENTER":303.373,"MEAN_ANOMALY":56.6365,"EPHEMERIS_TYPE":0,"CLASSIFICATION_TYPE":"U","NORAD_CAT_ID":23087,"ELEMENT_SET_NO":999,"REV_AT_EPOCH":65195,"BSTAR":6.2903155e-5,"MEAN_MOTION_DOT":7.3e-7,"MEAN_MOTION_DDOT":0},{"OBJECT_NAME":"SL-16 R/B","OBJECT_ID":"1994-023B","EPOCH":"2026-04-29T06:13:39.010656","MEAN_MOTION":14.15015742,"ECCENTRICITY":0.00049921,"INCLINATION":70.9996,"RA_OF_ASC_NODE":324.687,"ARG_OF_PERICENTER":237.9237,"MEAN_ANOMALY":122.1401,"EPHEMERIS_TYPE":0,"CLASSIFICATION_TYPE":"U","NORAD_CAT_ID":23088,"ELEMENT_SET_NO":999,"REV_AT_EPOCH":65324,"BSTAR":0.00010230408,"MEAN_MOTION_DOT":1.5e-6,"MEAN_MOTION_DDOT":0},{"OBJECT_NAME":"SL-16 R/B","OBJECT_ID":"1994-074B","EPOCH":"2026-04-29T00:57:46.264320","MEAN_MOTION":14.7945943,"ECCENTRICITY":0.00079006,"INCLINATION":97.7032,"RA_OF_ASC_NODE":147.8007,"ARG_OF_PERICENTER":63.8401,"MEAN_ANOMALY":326.0373,"EPHEMERIS_TYPE":0,"CLASSIFICATION_TYPE":"U","NORAD_CAT_ID":23343,"ELEMENT_SET_NO":999,"REV_AT_EPOCH":69469,"BSTAR":6.6207897e-5,"MEAN_MOTION_DOT":4.45e-6,"MEAN_MOTION_DDOT":0},{"OBJECT_NAME":"SL-16 R/B","OBJECT_ID":"1994-077B","EPOCH":"2026-04-29T07:00:30.536640","MEAN_MOTION":14.15572831,"ECCENTRICITY":2.758e-5,"INCLINATION":70.9833,"RA_OF_ASC_NODE":246.0271,"ARG_OF_PERICENTER":64.5031,"MEAN_ANOMALY":295.612,"EPHEMERIS_TYPE":0,"CLASSIFICATION_TYPE":"U","NORAD_CAT_ID":23405,"ELEMENT_SET_NO":999,"REV_AT_EPOCH":62339,"BSTAR":-2.2121717e-5,"MEAN_MOTION_DOT":-9.1e-7,"MEAN_MOTION_DDOT":0},{"OBJECT_NAME":"ARIANE 40+ R/B","OBJECT_ID":"1995-021B","EPOCH":"2026-04-29T04:48:15.252192","MEAN_MOTION":14.39805515,"ECCENTRICITY":0.00064783,"INCLINATION":98.4426,"RA_OF_ASC_NODE":189.9783,"ARG_OF_PERICENTER":1.5393,"MEAN_ANOMALY":57.8692,"EPHEMERIS_TYPE":0,"CLASSIFICATION_TYPE":"U","NORAD_CAT_ID":23561,"ELEMENT_SET_NO":999,"REV_AT_EPOCH":62651,"BSTAR":0.00010130874,"MEAN_MOTION_DOT":2.74e-6,"MEAN_MOTION_DDOT":0},{"OBJECT_NAME":"SL-16 R/B","OBJECT_ID":"1995-058B","EPOCH":"2026-04-29T05:32:20.437440","MEAN_MOTION":14.15504001,"ECCENTRICITY":0.00111,"INCLINATION":71.0211,"RA_OF_ASC_NODE":74.1427,"ARG_OF_PERICENTER":33.0392,"MEAN_ANOMALY":327.1422,"EPHEMERIS_TYPE":0,"CLASSIFICATION_TYPE":"U","NORAD_CAT_ID":23705,"ELEMENT_SET_NO":999,"REV_AT_EPOCH":57500,"BSTAR":-0.00010119123,"MEAN_MOTION_DOT":-2.45e-6,"MEAN_MOTION_DDOT":0},{"OBJECT_NAME":"SL-16 R/B","OBJECT_ID":"1996-051B","EPOCH":"2026-04-29T05:40:19.877088","MEAN_MOTION":14.12428885,"ECCENTRICITY":0.0012507,"INCLINATION":70.7611,"RA_OF_ASC_NODE":68.2497,"ARG_OF_PERICENTER":59.928,"MEAN_ANOMALY":300.3078,"EPHEMERIS_TYPE":0,"CLASSIFICATION_TYPE":"U","NORAD_CAT_ID":24298,"ELEMENT_SET_NO":999,"REV_AT_EPOCH":52878,"BSTAR":7.7131753e-5,"MEAN_MOTION_DOT":9.3e-7,"MEAN_MOTION_DDOT":0},{"OBJECT_NAME":"ORBVIEW 2 (SEASTAR)","OBJECT_ID":"1997-037A","EPOCH":"2026-04-29T00:30:11.335392","MEAN_MOTION":14.35527152,"ECCENTRICITY":0.00011072,"INCLINATION":98.8645,"RA_OF_ASC_NODE":284.6882,"ARG_OF_PERICENTER":269.8323,"MEAN_ANOMALY":90.2735,"EPHEMERIS_TYPE":0,"CLASSIFICATION_TYPE":"U","NORAD_CAT_ID":24883,"ELEMENT_SET_NO":999,"REV_AT_EPOCH":51569,"BSTAR":0.00010401781,"MEAN_MOTION_DOT":2.53e-6,"MEAN_MOTION_DDOT":0},{"OBJECT_NAME":"SL-16 R/B","OBJECT_ID":"1998-043G","EPOCH":"2026-04-29T02:36:31.137408","MEAN_MOTION":14.26060466,"ECCENTRICITY":0.00090251,"INCLINATION":98.8331,"RA_OF_ASC_NODE":72.856,"ARG_OF_PERICENTER":224.193,"MEAN_ANOMALY":135.8529,"EPHEMERIS_TYPE":0,"CLASSIFICATION_TYPE":"U","NORAD_CAT_ID":25400,"ELEMENT_SET_NO":999,"REV_AT_EPOCH":44617,"BSTAR":3.7119503e-5,"MEAN_MOTION_DOT":4.3e-7,"MEAN_MOTION_DDOT":0},{"OBJECT_NAME":"SL-16 R/B","OBJECT_ID":"1998-045B","EPOCH":"2026-04-29T06:54:03.580416","MEAN_MOTION":14.16196405,"ECCENTRICITY":0.00093217,"INCLINATION":71.0105,"RA_OF_ASC_NODE":75.1654,"ARG_OF_PERICENTER":299.2101,"MEAN_ANOMALY":60.809,"EPHEMERIS_TYPE":0,"CLASSIFICATION_TYPE":"U","NORAD_CAT_ID":25407,"ELEMENT_SET_NO":999,"REV_AT_EPOCH":43426,"BSTAR":6.15715e-7,"MEAN_MOTION_DOT":-4.7e-7,"MEAN_MOTION_DDOT":0},{"OBJECT_NAME":"ISS (ZARYA)","OBJECT_ID":"1998-067A","EPOCH":"2026-04-29T04:01:29.631648","MEAN_MOTION":15.49015163,"ECCENTRICITY":0.00070957,"INCLINATION":51.632,"RA_OF_ASC_NODE":182.7324,"ARG_OF_PERICENTER":3.0267,"MEAN_ANOMALY":357.0763,"EPHEMERIS_TYPE":0,"CLASSIFICATION_TYPE":"U","NORAD_CAT_ID":25544,"ELEMENT_SET_NO":999,"REV_AT_EPOCH":56415,"BSTAR":0.00013229681,"MEAN_MOTION_DOT":6.851e-5,"MEAN_MOTION_DDOT":0},{"OBJECT_NAME":"CZ-4B R/B","OBJECT_ID":"1999-025C","EPOCH":"2026-04-29T02:22:58.648224","MEAN_MOTION":14.18274693,"ECCENTRICITY":0.00367874,"INCLINATION":98.6529,"RA_OF_ASC_NODE":162.1625,"ARG_OF_PERICENTER":198.2307,"MEAN_ANOMALY":181.5798,"EPHEMERIS_TYPE":0,"CLASSIFICATION_TYPE":"U","NORAD_CAT_ID":25732,"ELEMENT_SET_NO":999,"REV_AT_EPOCH":39531,"BSTAR":4.9137404e-5,"MEAN_MOTION_DOT":5.9e-7,"MEAN_MOTION_DDOT":0},{"OBJECT_NAME":"OKEAN-O","OBJECT_ID":"1999-039A","EPOCH":"2026-04-29T03:25:46.799328","MEAN_MOTION":14.80407248,"ECCENTRICITY":0.00015953,"INCLINATION":97.9351,"RA_OF_ASC_NODE":178.4961,"ARG_OF_PERICENTER":112.8156,"MEAN_ANOMALY":247.3225,"EPHEMERIS_TYPE":0,"CLASSIFICATION_TYPE":"U","NORAD_CAT_ID":25860,"ELEMENT_SET_NO":999,"REV_AT_EPOCH":44185,"BSTAR":9.1084636e-5,"MEAN_MOTION_DOT":6.44e-6,"MEAN_MOTION_DDOT":0},{"OBJECT_NAME":"SL-16 R/B","OBJECT_ID":"1999-039B","EPOCH":"2026-04-29T03:25:54.798240","MEAN_MOTION":14.81794225,"ECCENTRICITY":0.00161761,"INCLINATION":97.9874,"RA_OF_ASC_NODE":178.1381,"ARG_OF_PERICENTER":93.7609,"MEAN_ANOMALY":266.5454,"EPHEMERIS_TYPE":0,"CLASSIFICATION_TYPE":"U","NORAD_CAT_ID":25861,"ELEMENT_SET_NO":999,"REV_AT_EPOCH":44433,"BSTAR":7.8315731e-5,"MEAN_MOTION_DOT":5.65e-6,"MEAN_MOTION_DDOT":0},{"OBJECT_NAME":"DELTA 2 R/B","OBJECT_ID":"1999-041E","EPOCH":"2026-04-29T04:42:36.014688","MEAN_MOTION":14.11935056,"ECCENTRICITY":0.05024016,"INCLINATION":51.7602,"RA_OF_ASC_NODE":99.5057,"ARG_OF_PERICENTER":137.3683,"MEAN_ANOMALY":226.7401,"EPHEMERIS_TYPE":0,"CLASSIFICATION_TYPE":"U","NORAD_CAT_ID":25876,"ELEMENT_SET_NO":999,"REV_AT_EPOCH":37016,"BSTAR":0.00013427031,"MEAN_MOTION_DOT":5.9e-6,"MEAN_MOTION_DDOT":0}]
